TIANMU-1 07             
1 57399U 23101A   26065.57454230  .00008352  00000+0  29795-3 0  9991
2 57399  97.2728 118.5929 0004609 142.4105 217.7458 15.29118809145964
STARLINK-32457          
1 61717U 24196L   26068.52642876 -.00000701  00000+0 -11543-4 0  9993
2 61717  53.1601 101.9495 0001072 115.0692 245.0420 15.30190961 77133
